STARLINK-1486           
1 45757U 20038AD  24130.60267576  .00096652  00000+0  31593-2 0  9990
2 45757  53.0780 296.9940 0002081  37.1810 322.9333 15.30945008216248
STARLINK-1487           
1 45758U 20038AE  24129.74108885  .00019902  00000+0  65133-3 0  9992
2 45758  53.0400 297.4942 0004027 113.2657 246.8767 15.31695878216156
STARLINK-1493           
1 45759U 20038AF  24130.28032837  .00009535  00000+0  65843-3 0  9996
2 45759  53.0543 341.7125 0001349  94.0257 266.0886 15.06384592215578
STARLINK-1494           
1 45760U 20038AG  24130.28400952  .00005513  00000+0  38887-3 0  9995
2 45760  53.0543 341.6968 0001321  95.7310 264.3829 15.06387340215585
STARLINK-1499           
1 45762U 20038AJ  24130.60870163  .00027609  00000+0  87246-3 0  9991
2 45762  53.0096 275.7059 0002890 213.2787 146.8032 15.32626438216545
STARLINK-1502           
1 45764U 20038AL  24130.31351311  .00011192  00000+0  76958-3 0  9998
2 45764  53.0541 341.5624 0001430 100.6707 259.4443 15.06375165215592
STARLINK-1509           
1 45766U 20038AN  24130.59250420  .00054686  00000+0  14136-2 0  9993
2 45766  53.0443 272.2338 0002229 120.1543 239.9681 15.38598465216581
STARLINK-1511           
1 45767U 20038AP  24130.26665723  .00025560  00000+0  84273-3 0  9993
2 45767  53.0507 331.6369 0001769 146.1562 213.9551 15.31307319215715
STARLINK-1459           
1 45769U 20038AR  24130.36970878  .00005807  00000+0  40833-3 0  9992
2 45769  53.0532   1.3388 0001414  89.5819 270.5332 15.06409366215318
STARLINK-1462           
1 45770U 20038AS  24130.20663505  .00035092  00000+0  77552-3 0  9990
2 45770  53.0490 313.2633 0000286 278.8371  81.2602 15.43536324215967
STARLINK-1463           
1 45771U 20038AT  24130.49595672  .00002655  00000+0  19708-3 0  9999
2 45771  53.0550 320.7434 0001276 101.8471 258.2661 15.06399970215888
STARLINK-1470           
1 45772U 20038AU  24130.48490081  .00001538  00000+0  12212-3 0  9999
2 45772  53.0547 320.7918 0001316  90.4440 269.6699 15.06392177215896
STARLINK-1482           
1 45773U 20038AV  24129.94676698  .00001914  00000+0  14736-3 0  9990
2 45773  53.0533 323.2083 0001140  82.3452 277.7666 15.06394793215813
STARLINK-1485           
1 45774U 20038AW  24130.51438432  .00002949  00000+0  21677-3 0  9999
2 45774  53.0543 320.6594 0001463  88.1070 272.0086 15.06400629215899
STARLINK-1488           
1 45775U 20038AX  24130.58335648  .00109833  00000+0  28304-2 0  9995
2 45775  53.0691 265.5180 0007063 308.9480  11.9967 15.38340508  5925
STARLINK-1489           
1 45776U 20038AY  24130.22257906  .00036220  00000+0  20545-2 0  9995
2 45776  53.0549 320.1855 0001867 168.1212 191.9824 15.12649515215881
STARLINK-1490           
1 45777U 20038AZ  24130.61094984  .00055331  00000+0  19916-2 0  9998
2 45777  53.0327 284.6138 0000562 253.1040 106.9896 15.28079578216428
STARLINK-1491           
1 45778U 20038BA  24130.23793890 -.00002207  00000+0 -12925-3 0  9999
2 45778  53.0562 321.9073 0001393  93.9306 266.1843 15.06408852215844
STARLINK-1492           
1 45779U 20038BB  24130.59011220  .00065374  00000+0  18959-2 0  9993
2 45779  53.0245 257.5677 0000834 349.0105  11.0877 15.34945264216780
STARLINK-1496           
1 45780U 20038BC  24130.24532773  .00017128  00000+0  11658-2 0  9991
2 45780  53.0525 321.8663 0000766  81.4571 278.6505 15.06405875215844
STARLINK-1497           
1 45781U 20038BD  24130.27111382  .00001382  00000+0  11164-3 0  9992
2 45781  53.0558 321.7517 0001552  92.7297 267.3869 15.06398208215852
STARLINK-1498           
1 45782U 20038BE  24130.57671927  .00144647  00000+0  39903-2 0  9994
2 45782  53.0473 257.7822 0004156 335.2774  24.8028 15.36077027216809
STARLINK-1505           
1 45783U 20038BF  24130.26743042  .00005232  00000+0  36997-3 0  9996
2 45783  53.0542 321.7679 0001264  85.1716 274.9417 15.06391167215869
STARLINK-1510           
1 45784U 20038BG  24130.24161937  .00004467  00000+0  31848-3 0  9991
2 45784  53.0530 321.8836 0001420  89.5031 270.6120 15.06409495215852
STARLINK-1512           
1 45785U 20038BH  24130.22319101  .00000153  00000+0  29176-4 0  9998
2 45785  53.0550 321.9645 0001404  91.3889 268.7261 15.06397806215854
STARLINK-1513           
1 45786U 20038BJ  24129.81037570 -.00000828  00000+0 -36686-4 0  9994
2 45786  53.0538 323.8198 0001252  85.8678 274.2454 15.06385696215793
STARLINK-1517           
1 45787U 20038BK  24129.81774293  .00000379  00000+0  44347-4 0  9997
2 45787  53.0543 323.7860 0001265  88.1197 271.9937 15.06395463216717
STARLINK-1522           
1 46027U 20055A   24130.58718799  .00011751  00000+0  80642-3 0  9992
2 46027  53.0557 250.3360 0001306  83.6565 276.4572 15.06403155208034
STARLINK-1523           
1 46028U 20055B   24130.60192902  .00024592  00000+0  16634-2 0  9994
2 46028  53.0542 250.2665 0001501  83.9723 276.1437 15.06415317208054
STARLINK-1526           
1 46029U 20055C   24130.59455985  .00025341  00000+0  17138-2 0  9999
2 46029  53.0535 250.3003 0001447  91.7089 268.4066 15.06404307208043
STARLINK-1534           
1 46030U 20055D   24130.61296396  .00027075  00000+0  18278-2 0  9995
2 46030  53.0546 250.2148 0001491  83.9607 276.1552 15.06435602208008
STARLINK-1544           
1 46031U 20055E   24130.60568841  .00024535  00000+0  16597-2 0  9992
2 46031  53.0538 250.8279 0001634  81.8252 278.2922 15.06413285208022
STARLINK-1555           
1 46032U 20055F   24130.57979859  .00020239  00000+0  13723-2 0  9999
2 46032  53.0541 250.3668 0001238  86.0557 274.0573 15.06437491208042
STARLINK-1556           
1 46033U 20055G   24130.56135667  .00042969  00000+0  28834-2 0  9993
2 46033  53.0539 250.4479 0000785  77.6832 282.4245 15.06434531208017
STARLINK-1557           
1 46034U 20055H   24130.56506816  .00022973  00000+0  15559-2 0  9995
2 46034  53.0541 250.4317 0001373  93.2962 266.8184 15.06405313208018
STARLINK-1558           
1 46035U 20055J   24130.57244430  .00023739  00000+0  16072-2 0  9990
2 46035  53.0536 250.3987 0001463  98.2986 261.8169 15.06400681208040
STARLINK-1560           
1 46036U 20055K   24130.62404385  .00023840  00000+0  16135-2 0  9997
2 46036  53.0548 250.1671 0001435  93.1124 267.0029 15.06410627208054
STARLINK-1565           
1 46037U 20055L   24130.55399998  .00027146  00000+0  18350-2 0  9997
2 46037  53.0546 250.4806 0001564  89.9432 270.1736 15.06386323208037
STARLINK-1567           
1 46038U 20055M   24130.56875443  .00022632  00000+0  15332-2 0  9995
2 46038  53.0536 250.4139 0001389  95.5601 264.5547 15.06404642208034
STARLINK-1569           
1 46039U 20055N   24130.57612921  .00024874  00000+0  16826-2 0  9996
2 46039  53.0538 250.3826 0001330  91.3398 268.7743 15.06405881208032
STARLINK-1576           
1 46040U 20055P   24130.58335648  .00444923  00000+0  15760-2 0  9994
2 46040  53.0523 228.3316 0012448 322.6182 236.2289 15.87260371  5638
STARLINK-1580           
1 46041U 20055Q   24130.55034417  .00024762  00000+0  16747-2 0  9993
2 46041  53.0542 250.5840 0001382  85.0269 275.0878 15.06416575208001
STARLINK-1581           
1 46042U 20055R   24130.59086140  .00009794  00000+0  67504-3 0  9994
2 46042  53.0532 250.3164 0001767  52.5245 307.5904 15.06424335208002
STARLINK-1582           
1 46043U 20055S   24130.58347954  .00024772  00000+0  16749-2 0  9994
2 46043  53.0541 250.3506 0001522  87.0646 273.0518 15.06425664208037
STARLINK-1584           
1 46044U 20055T   24130.58335648  .01059497  00000+0  48722-2 0  9991
2 46044  53.0509 228.9811 0001373  64.2283 218.6530 15.80694930  6086
STARLINK-1591           
1 46045U 20055U   24130.60928260  .00022627  00000+0  15313-2 0  9997
2 46045  53.0547 250.2321 0001298  81.5801 278.5335 15.06442930208022
STARLINK-1524           
1 46047U 20055W   24130.62862996  .00028093  00000+0  18957-2 0  9994
2 46047  53.0537 240.1484 0001610  84.8545 275.2627 15.06432212208187
STARLINK-1527           
1 46048U 20055X   24130.62494356  .00029088  00000+0  19618-2 0  9996
2 46048  53.0534 240.1632 0001436  83.5432 276.5721 15.06434964208160
STARLINK-1530           
1 46049U 20055Y   24130.58335648  .00498441  00000+0  11172-1 0  9999
2 46049  53.0565 236.6951 0001274  61.4757 171.6326 15.40955759207695
STARLINK-1540           
1 46051U 20055AA  24130.59178604  .00027448  00000+0  18538-2 0  9999
2 46051  53.0548 240.3119 0001445  93.2012 266.9142 15.06412301208197
STARLINK-1541           
1 46052U 20055AB  24130.57703662  .00041611  00000+0  27925-2 0  9994
2 46052  53.0545 240.3793 0001219  73.6146 286.4977 15.06446033208150
STARLINK-1543           
1 46053U 20055AC  24130.58071121  .00027978  00000+0  18879-2 0  9992
2 46053  53.0546 240.3615 0001438  82.5799 277.5353 15.06436076208189
STARLINK-1548           
1 46054U 20055AD  24130.58810596  .00017190  00000+0  11699-2 0  9998
2 46054  53.0544 240.3268 0001538  89.2860 270.8305 15.06406708208188
STARLINK-1554           
1 46055U 20055AE  24130.57334337  .00028269  00000+0  19078-2 0  9990
2 46055  53.0535 240.3951 0001303  97.0656 263.0481 15.06425129208185
STARLINK-1564           
1 46058U 20055AH  24130.62111015  .00017565  00000+0  12212-2 0  9995
2 46058  53.0532 240.3314 0001230  92.2250 267.8879 15.05595049208185
STARLINK-1570           
1 46059U 20055AJ  24130.61390796  .00018340  00000+0  12467-2 0  9994
2 46059  53.0533 240.2101 0001273  95.9653 264.1481 15.06406037208148
STARLINK-1572           
1 46060U 20055AK  24130.61021730  .00017046  00000+0  11603-2 0  9998
2 46060  53.0533 240.2255 0001177  74.8001 285.3118 15.06406002208151
STARLINK-1573           
1 46061U 20055AL  24130.54019045  .00020688  00000+0  14036-2 0  9996
2 46061  53.0536 240.5805 0001271  89.5727 270.5408 15.06401820208175
STARLINK-1574           
1 46062U 20055AM  24130.56968402  .00026607  00000+0  17981-2 0  9998
2 46062  53.0540 240.4122 0001641  81.0618 279.0556 15.06405743208142
